[{"OBJECT_ID":"2012-043B","OBJECT_NAME":"HYLAS 2","NORAD_CAT_ID":"38741","OBJECT_TYPE":"PAYLOAD","PERIOD":"1436.067","INCLINATION":"0.0372","APOGEE":"35794.127","PERIGEE":"35777.910","ECCENTRICITY":"0.0001923","MEAN_MOTION":"1.00273847","TLE_LINE1":"1 38741U 12043B   16238.98421257  .00000126  00000-0  00000+0 0  9999","TLE_LINE2":"2 38741   0.0372 290.8572 0001923 235.4917 193.6495  1.00273847 14932","LAUNCH_DATE":"2012-08-02","LAUNCH_SITE":"FRENCH GUIANA","OWNER":"UNITED KINGDOM","ORBIT_TYPE":"Geosynchronous","OPERATIONAL_STATUS":"Operational","satInfo":{"lng":82.59780938541876,"lat":0.01576035107005697,"elevation":-8.563403988596317,"azimuth":232.40219061458123,"range":42615.05576355557,"height":35761.834533671645,"velocity":3.075579338290892},"x":297,"y":-38,"dx":0.39623768598862097,"dy":-3.0499481901049115},{"OBJECT_ID":"2012-045A","OBJECT_NAME":"INTELSAT 21","NORAD_CAT_ID":"38749","OBJECT_TYPE":"PAYLOAD","PERIOD":"1436.126","INCLINATION":"0.0137","APOGEE":"35798.945","PERIGEE":"35775.392","ECCENTRICITY":"0.0002793","MEAN_MOTION":"1.00269744","TLE_LINE1":"1 38749U 12045A   16239.23111532 -.00000313  00000-0  00000+0 0  9999","TLE_LINE2":"2 38749   0.0137 155.0327 0002793 356.7599 208.2225  1.00269744 14720","LAUNCH_DATE":"2012-08-19","LAUNCH_SITE":"SEA LAUNCH","OWNER":"INTERNATIONAL TELECOMMUNICATIONS SATELLITE ORGANIZATION (INTELSAT)","ORBIT_TYPE":"Geosynchronous","OPERATIONAL_STATUS":"Operational","satInfo":{"lng":-66.37877530542397,"lat":0.27137824375249814,"elevation":-8.304907272187842,"azimuth":21.378775305423968,"range":42630.05422183383,"height":35805.346506753274,"velocity":3.0737367487236327},"x":-275,"y":-118,"dx":1.2316108542053836,"dy":2.816201751341266},{"OBJECT_ID":"2012-045B","OBJECT_NAME":"BLOCK DM-SL R/B","NORAD_CAT_ID":"38750","OBJECT_TYPE":"ROCKET BODY","PERIOD":"609.667","INCLINATION":"0.5405","APOGEE":"34581.411","PERIGEE":"296.535","ECCENTRICITY":"0.7197531","MEAN_MOTION":"2.36194186","TLE_LINE1":"1 38750U 12045B   16238.55740687 +.00000890 +00000-0 +50507-3 0  9994","TLE_LINE2":"2 38750 000.5405 320.8917 7197531 267.7269 042.6962 02.36194186034209","LAUNCH_DATE":"2012-08-19","LAUNCH_SITE":"SEA LAUNCH","OWNER":"SEA LAUNCH DEMO","ORBIT_TYPE":"Highly Elliptical Orbit","OPERATIONAL_STATUS":"N/A, derelict rocket body","satInfo":{"lng":107.37380893587361,"lat":-0.14335126639551926,"elevation":-19.75463200832443,"azimuth":207.62619106412637,"range":18940.089467917605,"height":11447.35911950237,"velocity":5.281367257019343},"x":91,"y":28,"dx":-1.5770403375250166,"dy":-5.0404150501059934},{"OBJECT_ID":"2012-051A","OBJECT_NAME":"ASTRA 2F","NORAD_CAT_ID":"38778","OBJECT_TYPE":"PAYLOAD","PERIOD":"1436.100","INCLINATION":"0.0937","APOGEE":"35802.803","PERIGEE":"35770.547","ECCENTRICITY":"0.0003825","MEAN_MOTION":"1.00271506","TLE_LINE1":"1 38778U 12051A   16238.99207131  .00000122  00000-0  00000+0 0  9998","TLE_LINE2":"2 38778   0.0937 251.4785 0003825 308.9113 159.5880  1.00271506 14372","LAUNCH_DATE":"2012-09-28","LAUNCH_SITE":"FRENCH GUIANA","OWNER":"SOCIÉTÉ EUROPÉENNE DES SATELLITES","ORBIT_TYPE":"Geosynchronous","OPERATIONAL_STATUS":"Operational","satInfo":{"lng":71.10519659835246,"lat":-0.9595122134310992,"elevation":-9.512770176241146,"azimuth":243.89480340164755,"range":42732.287311417625,"height":35772.434139891266,"velocity":3.074751008182771},"x":284,"y":-95,"dx":0.995701566412659,"dy":-2.909067230739837},{"OBJECT_ID":"2012-051B","OBJECT_NAME":"GSAT 10","NORAD_CAT_ID":"38779","OBJECT_TYPE":"PAYLOAD","PERIOD":"1436.087","INCLINATION":"0.0497","APOGEE":"35791.573","PERIGEE":"35781.251","ECCENTRICITY":"0.0001224","MEAN_MOTION":"1.00272443","TLE_LINE1":"1 38779U 12051B   16237.84305602 -.00000190 +00000-0 +00000-0 0  9991","TLE_LINE2":"2 38779 000.0497 274.1640 0001224 197.6484 248.1959 01.00272443014172","LAUNCH_DATE":"2012-09-28","LAUNCH_SITE":"FRENCH GUIANA","OWNER":"INDIA","ORBIT_TYPE":"Geosynchronous","OPERATIONAL_STATUS":"Operational","satInfo":{"lng":67.51156271437081,"lat":-0.051731658243321814,"elevation":-8.625280082047594,"azimuth":247.4884372856292,"range":42642.40782054858,"height":35782.01543465974,"velocity":3.0749788921045624},"x":277,"y":-112,"dx":1.1761701361464385,"dy":-2.841147479052411},{"OBJECT_ID":"2012-057A","OBJECT_NAME":"INTELSAT 23","NORAD_CAT_ID":"38867","OBJECT_TYPE":"PAYLOAD","PERIOD":"1436.079","INCLINATION":"0.0405","APOGEE":"35794.108","PERIGEE":"35778.423","ECCENTRICITY":"0.000186","MEAN_MOTION":"1.00272966","TLE_LINE1":"1 38867U 12057A   16238.21971858 -.00000310 +00000-0 +00000-0 0  9993","TLE_LINE2":"2 38867 000.0405 262.3620 0001860 249.4785 208.1642 01.00272966014076","LAUNCH_DATE":"2012-10-14","LAUNCH_SITE":"TYURATAM MISSILE AND SPACE COMPLEX","OWNER":"INTERNATIONAL TELECOMMUNICATIONS SATELLITE ORGANIZATION (INTELSAT)","ORBIT_TYPE":"Geosynchronous","OPERATIONAL_STATUS":"Operational","satInfo":{"lng":-56.42883342139137,"lat":2.099428448839188,"elevation":-6.515159911117591,"azimuth":11.428833421391351,"range":42423.003591075685,"height":35799.175750392475,"velocity":3.0740310859155784},"x":-250,"y":-162,"dx":1.6998541058005772,"dy":2.5612815417615127},{"OBJECT_ID":"2012-059A","OBJECT_NAME":"BEIDOU G6","NORAD_CAT_ID":"38953","OBJECT_TYPE":"PAYLOAD","PERIOD":"1436.083","INCLINATION":"1.0517","APOGEE":"35809.188","PERIGEE":"35763.474","ECCENTRICITY":"0.0005421","MEAN_MOTION":"1.00272732","TLE_LINE1":"1 38953U 12059A   16238.92569468 -.00000204 +00000-0 +10000-3 0  9995","TLE_LINE2":"2 38953 001.0517 078.8649 0005421 134.0078 179.0434 01.00272732014121","LAUNCH_DATE":"2012-10-25","LAUNCH_SITE":"Xichang Space Center, China","OWNER":"PEOPLES REPUBLIC OF CHINA","ORBIT_TYPE":"Geosynchronous","OPERATIONAL_STATUS":"Operational","satInfo":{"lng":66.4690838928142,"lat":0.8997152258319104,"elevation":-7.689959792725976,"azimuth":248.53091610718585,"range":42562.46452337131,"height":35806.7446468471,"velocity":3.0731793452925578},"x":275,"y":-117,"dx":1.2269479392262619,"dy":-2.817628442992657},{"OBJECT_ID":"2012-061B","OBJECT_NAME":"YAMAL 300K","NORAD_CAT_ID":"38978","OBJECT_TYPE":"PAYLOAD","PERIOD":"1436.087","INCLINATION":"0.011","APOGEE":"35792.959","PERIGEE":"35779.862","ECCENTRICITY":"0.0001553","MEAN_MOTION":"1.00272448","TLE_LINE1":"1 38978U 12061B   16238.71656884  .00000044  00000-0  00000+0 0  9997","TLE_LINE2":"2 38978   0.0110 165.2738 0001553  65.7468 184.3106  1.00272448 13950","LAUNCH_DATE":"2012-11-02","LAUNCH_SITE":"TYURATAM MISSILE AND SPACE COMPLEX","OWNER":"COMMONWEALTH OF INDEPENDENT STATES","ORBIT_TYPE":"Geosynchronous","OPERATIONAL_STATUS":"Operational","satInfo":{"lng":-63.36701579835882,"lat":0.2709110408837033,"elevation":-8.305058983730797,"azimuth":18.367015798358796,"range":42631.61006950376,"height":35806.868124712295,"velocity":3.074092142653762},"x":-268,"y":-132,"dx":1.378034852399494,"dy":2.7479196580500496},{"OBJECT_ID":"2012-062A","OBJECT_NAME":"STARONE C3","NORAD_CAT_ID":"38991","OBJECT_TYPE":"PAYLOAD","PERIOD":"1436.117","INCLINATION":"0.0028","APOGEE":"35795.808","PERIGEE":"35778.200","ECCENTRICITY":"0.0002088","MEAN_MOTION":"1.00270331","TLE_LINE1":"1 38991U 12062A   16239.38394649 -.00000278  00000-0  00000+0 0  9995","TLE_LINE2":"2 38991   0.0028  78.8855 0002088 119.2576 200.1317  1.00270331 13940","LAUNCH_DATE":"2012-11-10","LAUNCH_SITE":"FRENCH GUIANA","OWNER":"BRAZIL","ORBIT_TYPE":"Geosynchronous","OPERATIONAL_STATUS":"Operational","satInfo":{"lng":-93.16337272450971,"lat":-1.3252138932554471,"elevation":-9.86442659563618,"azimuth":48.1633727245097,"range":42794.76891804276,"height":35795.21777254734,"velocity":3.074548855987481},"x":-300,"y":16,"dx":-0.169663517740954,"dy":3.069863996759741},{"OBJECT_ID":"2012-062B","OBJECT_NAME":"EUTE 21B","NORAD_CAT_ID":"38992","OBJECT_TYPE":"PAYLOAD","PERIOD":"1436.091","INCLINATION":"0.0663","APOGEE":"35795.260","PERIGEE":"35777.712","ECCENTRICITY":"0.0002081","MEAN_MOTION":"1.00272179","TLE_LINE1":"1 38992U 12062B   16238.01311834 +.00000104 +00000-0 +00000-0 0  9998","TLE_LINE2":"2 38992 000.0663 004.5604 0002081 154.9412 200.5019 01.00272179013936","LAUNCH_DATE":"2012-11-10","LAUNCH_SITE":"FRENCH GUIANA","OWNER":"EUROPEAN TELECOMMUNICATIONS SATELLITE ORGANIZATION (EUTELSAT)","ORBIT_TYPE":"Geosynchronous","OPERATIONAL_STATUS":"Operational","satInfo":{"lng":44.061678112483754,"lat":0.10868465686945776,"elevation":-8.471126624926073,"azimuth":270.9383218875162,"range":42612.25563892801,"height":35769.304234451476,"velocity":3.075146572160128},"x":208,"y":-211,"dx":2.2097744757875697,"dy":-2.138556336977344},{"OBJECT_ID":"2012-065A","OBJECT_NAME":"ECHOSTAR 16","NORAD_CAT_ID":"39008","OBJECT_TYPE":"PAYLOAD","PERIOD":"1436.090","INCLINATION":"0.0153","APOGEE":"35794.601","PERIGEE":"35778.343","ECCENTRICITY":"0.0001928","MEAN_MOTION":"1.00272229","TLE_LINE1":"1 39008U 12065A   16239.24054277 -.00000310  00000-0  00000+0 0  9990","TLE_LINE2":"2 39008   0.0153 127.9517 0001928  27.4792 204.5711  1.00272229 13890","LAUNCH_DATE":"2012-11-20","LAUNCH_SITE":"TYURATAM MISSILE AND SPACE COMPLEX","OWNER":"UNITED STATES OF AMERICA","ORBIT_TYPE":"Geosynchronous","OPERATIONAL_STATUS":"Operational","satInfo":{"lng":-71.75531193773526,"lat":-0.27031988384739464,"elevation":-8.834491886057167,"azimuth":26.75531193773525,"range":42687.19420907486,"height":35803.0898204721,"velocity":3.073938588438332},"x":-285,"y":-92,"dx":0.9623756529115484,"dy":2.919406026604267}]